STARLINK-35722          
1 66218U 25244N   25330.36391061  .00036349  00000+0  91444-3 0  9991
2 66218  53.1605 353.1302 0001674  90.5971 269.5226 15.39617095  5790
STARLINK-35737          
1 66219U 25244P   25330.48909184  .00078606  00000+0  19531-2 0  9994
2 66219  53.1602 352.4874 0001305  90.4270 269.6885 15.39648819  5819
STARLINK-35677          
1 66220U 25244Q   25330.41668980  .00046657  00000+0  11706-2 0  9992
2 66220  53.1595 352.7790 0001395  93.3952 250.9494 15.39584947  5584
STARLINK-35704          
1 66221U 25244R   25330.41668980  .00045915  00000+0  11522-2 0  9995
2 66221  53.1598 352.7269 0001800  90.2967 279.7934 15.39586320  5587
STARLINK-35666          
1 66222U 25244S   25330.41668980  .00047063  00000+0  11808-2 0  9999
2 66222  53.1601 352.6755 0001375 106.8166 289.0369 15.39580657  5699
STARLINK-35664          
1 66223U 25244T   25330.41668980  .00047085  00000+0  11813-2 0  9990
2 66223  53.1601 352.6798 0001634  88.9718 305.0447 15.39582539  5695
STARLINK-35733          
1 66224U 25244U   25330.41668980  .00047073  00000+0  11810-2 0  9995
2 66224  53.1604 352.6244 0001458  77.3874 344.2159 15.39581949  5581
STARLINK-35734          
1 66225U 25244V   25330.41668980  .00052965  00000+0  13265-2 0  9998
2 66225  53.1604 352.6269 0001637  87.2831 332.4776 15.39584122  5581
STARLINK-34466          
1 66226U 25244W   25330.41668980  .00046887  00000+0  11764-2 0  9997
2 66226  53.1603 352.5761 0001213  81.1442   4.3791 15.39582110  5901
STARLINK-34882          
1 66227U 25244X   25330.41668980  .00047285  00000+0  11864-2 0  9992
2 66227  53.1601 352.5714 0001240  80.5825   6.7741 15.39579342  5900
STARLINK-35731          
1 66228U 25244Y   25330.41668980 -.01750575  00000+0 -46396-1 0  9996
2 66228  53.1602 352.5251 0001350  71.8033  38.7571 15.40893814  5589
STARLINK-35758          
1 66229U 25244Z   25330.41668980 -.01736798  00000+0 -46016-1 0  9997
2 66229  53.1604 352.5219 0001251  68.5155  43.8898 15.40879488  5584
