CCSDS_OMM_VERS = 2.0
CREATION_DATE  = 
ORIGINATOR     = 

OBJECT_NAME    = STARLINK-35722
OBJECT_ID      = 2025-244N
CENTER_NAME    = EARTH
REF_FRAME      = TEME
TIME_SYSTEM    = UTC
MEAN_ELEMENT_THEORY = SGP/SGP4

EPOCH          = 2025-11-26T08:44:01.877568
MEAN_MOTION    = 15.39617095
ECCENTRICITY   = .00016745
INCLINATION    = 53.1605
RA_OF_ASC_NODE = 353.1302
ARG_OF_PERICENTER = 90.5971
MEAN_ANOMALY   = 269.5226

EPHEMERIS_TYPE = 0
CLASSIFICATION_TYPE = U
NORAD_CAT_ID   = 66218
ELEMENT_SET_NO = 999
REV_AT_EPOCH   = 579
BSTAR          = .91444318E-3
MEAN_MOTION_DOT = .36349E-3
MEAN_MOTION_DDOT = 0

CCSDS_OMM_VERS = 2.0
CREATION_DATE  = 
ORIGINATOR     = 

OBJECT_NAME    = STARLINK-35737
OBJECT_ID      = 2025-244P
CENTER_NAME    = EARTH
REF_FRAME      = TEME
TIME_SYSTEM    = UTC
MEAN_ELEMENT_THEORY = SGP/SGP4

EPOCH          = 2025-11-26T11:44:17.534976
MEAN_MOTION    = 15.39648819
ECCENTRICITY   = .0001305
INCLINATION    = 53.1602
RA_OF_ASC_NODE = 352.4874
ARG_OF_PERICENTER = 90.4270
MEAN_ANOMALY   = 269.6885

EPHEMERIS_TYPE = 0
CLASSIFICATION_TYPE = U
NORAD_CAT_ID   = 66219
ELEMENT_SET_NO = 999
REV_AT_EPOCH   = 581
BSTAR          = .19531E-2
MEAN_MOTION_DOT = .78606E-3
MEAN_MOTION_DDOT = 0

CCSDS_OMM_VERS = 2.0
CREATION_DATE  = 
ORIGINATOR     = 

OBJECT_NAME    = STARLINK-35677
OBJECT_ID      = 2025-244Q
CENTER_NAME    = EARTH
REF_FRAME      = TEME
TIME_SYSTEM    = UTC
MEAN_ELEMENT_THEORY = SGP/SGP4

EPOCH          = 2025-11-26T10:00:01.998720
MEAN_MOTION    = 15.39584947
ECCENTRICITY   = .0001395
INCLINATION    = 53.1595
RA_OF_ASC_NODE = 352.7790
ARG_OF_PERICENTER = 93.3952
MEAN_ANOMALY   = 250.9494

EPHEMERIS_TYPE = 0
CLASSIFICATION_TYPE = U
NORAD_CAT_ID   = 66220
ELEMENT_SET_NO = 999
REV_AT_EPOCH   = 558
BSTAR          = .11706E-2
MEAN_MOTION_DOT = .46657E-3
MEAN_MOTION_DDOT = 0

CCSDS_OMM_VERS = 2.0
CREATION_DATE  = 
ORIGINATOR     = 

OBJECT_NAME    = STARLINK-35704
OBJECT_ID      = 2025-244R
CENTER_NAME    = EARTH
REF_FRAME      = TEME
TIME_SYSTEM    = UTC
MEAN_ELEMENT_THEORY = SGP/SGP4

EPOCH          = 2025-11-26T10:00:01.998720
MEAN_MOTION    = 15.39586320
ECCENTRICITY   = .00018
INCLINATION    = 53.1598
RA_OF_ASC_NODE = 352.7269
ARG_OF_PERICENTER = 90.2967
MEAN_ANOMALY   = 279.7934

EPHEMERIS_TYPE = 0
CLASSIFICATION_TYPE = U
NORAD_CAT_ID   = 66221
ELEMENT_SET_NO = 999
REV_AT_EPOCH   = 558
BSTAR          = .11522E-2
MEAN_MOTION_DOT = .45915E-3
MEAN_MOTION_DDOT = 0

CCSDS_OMM_VERS = 2.0
CREATION_DATE  = 
ORIGINATOR     = 

OBJECT_NAME    = STARLINK-35666
OBJECT_ID      = 2025-244S
CENTER_NAME    = EARTH
REF_FRAME      = TEME
TIME_SYSTEM    = UTC
MEAN_ELEMENT_THEORY = SGP/SGP4

EPOCH          = 2025-11-26T10:00:01.998720
MEAN_MOTION    = 15.39580657
ECCENTRICITY   = .0001375
INCLINATION    = 53.1601
RA_OF_ASC_NODE = 352.6755
ARG_OF_PERICENTER = 106.8166
MEAN_ANOMALY   = 289.0369

EPHEMERIS_TYPE = 0
CLASSIFICATION_TYPE = U
NORAD_CAT_ID   = 66222
ELEMENT_SET_NO = 999
REV_AT_EPOCH   = 569
BSTAR          = .11808E-2
MEAN_MOTION_DOT = .47063E-3
MEAN_MOTION_DDOT = 0

CCSDS_OMM_VERS = 2.0
CREATION_DATE  = 
ORIGINATOR     = 

OBJECT_NAME    = STARLINK-35664
OBJECT_ID      = 2025-244T
CENTER_NAME    = EARTH
REF_FRAME      = TEME
TIME_SYSTEM    = UTC
MEAN_ELEMENT_THEORY = SGP/SGP4

EPOCH          = 2025-11-26T10:00:01.998720
MEAN_MOTION    = 15.39582539
ECCENTRICITY   = .0001634
INCLINATION    = 53.1601
RA_OF_ASC_NODE = 352.6798
ARG_OF_PERICENTER = 88.9718
MEAN_ANOMALY   = 305.0447

EPHEMERIS_TYPE = 0
CLASSIFICATION_TYPE = U
NORAD_CAT_ID   = 66223
ELEMENT_SET_NO = 999
REV_AT_EPOCH   = 569
BSTAR          = .11813E-2
MEAN_MOTION_DOT = .47085E-3
MEAN_MOTION_DDOT = 0

CCSDS_OMM_VERS = 2.0
CREATION_DATE  = 
ORIGINATOR     = 

OBJECT_NAME    = STARLINK-35733
OBJECT_ID      = 2025-244U
CENTER_NAME    = EARTH
REF_FRAME      = TEME
TIME_SYSTEM    = UTC
MEAN_ELEMENT_THEORY = SGP/SGP4

EPOCH          = 2025-11-26T10:00:01.998720
MEAN_MOTION    = 15.39581949
ECCENTRICITY   = .0001458
INCLINATION    = 53.1604
RA_OF_ASC_NODE = 352.6244
ARG_OF_PERICENTER = 77.3874
MEAN_ANOMALY   = 344.2159

EPHEMERIS_TYPE = 0
CLASSIFICATION_TYPE = U
NORAD_CAT_ID   = 66224
ELEMENT_SET_NO = 999
REV_AT_EPOCH   = 558
BSTAR          = .1181E-2
MEAN_MOTION_DOT = .47073E-3
MEAN_MOTION_DDOT = 0

CCSDS_OMM_VERS = 2.0
CREATION_DATE  = 
ORIGINATOR     = 

OBJECT_NAME    = STARLINK-35734
OBJECT_ID      = 2025-244V
CENTER_NAME    = EARTH
REF_FRAME      = TEME
TIME_SYSTEM    = UTC
MEAN_ELEMENT_THEORY = SGP/SGP4

EPOCH          = 2025-11-26T10:00:01.998720
MEAN_MOTION    = 15.39584122
ECCENTRICITY   = .0001637
INCLINATION    = 53.1604
RA_OF_ASC_NODE = 352.6269
ARG_OF_PERICENTER = 87.2831
MEAN_ANOMALY   = 332.4776

EPHEMERIS_TYPE = 0
CLASSIFICATION_TYPE = U
NORAD_CAT_ID   = 66225
ELEMENT_SET_NO = 999
REV_AT_EPOCH   = 558
BSTAR          = .13265E-2
MEAN_MOTION_DOT = .52965E-3
MEAN_MOTION_DDOT = 0

CCSDS_OMM_VERS = 2.0
CREATION_DATE  = 
ORIGINATOR     = 

OBJECT_NAME    = STARLINK-34466
OBJECT_ID      = 2025-244W
CENTER_NAME    = EARTH
REF_FRAME      = TEME
TIME_SYSTEM    = UTC
MEAN_ELEMENT_THEORY = SGP/SGP4

EPOCH          = 2025-11-26T10:00:01.998720
MEAN_MOTION    = 15.39582110
ECCENTRICITY   = .0001213
INCLINATION    = 53.1603
RA_OF_ASC_NODE = 352.5761
ARG_OF_PERICENTER = 81.1442
MEAN_ANOMALY   = 4.3791

EPHEMERIS_TYPE = 0
CLASSIFICATION_TYPE = U
NORAD_CAT_ID   = 66226
ELEMENT_SET_NO = 999
REV_AT_EPOCH   = 590
BSTAR          = .11764E-2
MEAN_MOTION_DOT = .46887E-3
MEAN_MOTION_DDOT = 0

CCSDS_OMM_VERS = 2.0
CREATION_DATE  = 
ORIGINATOR     = 

OBJECT_NAME    = STARLINK-34882
OBJECT_ID      = 2025-244X
CENTER_NAME    = EARTH
REF_FRAME      = TEME
TIME_SYSTEM    = UTC
MEAN_ELEMENT_THEORY = SGP/SGP4

EPOCH          = 2025-11-26T10:00:01.998720
MEAN_MOTION    = 15.39579342
ECCENTRICITY   = .000124
INCLINATION    = 53.1601
RA_OF_ASC_NODE = 352.5714
ARG_OF_PERICENTER = 80.5825
MEAN_ANOMALY   = 6.7741

EPHEMERIS_TYPE = 0
CLASSIFICATION_TYPE = U
NORAD_CAT_ID   = 66227
ELEMENT_SET_NO = 999
REV_AT_EPOCH   = 590
BSTAR          = .11864E-2
MEAN_MOTION_DOT = .47285E-3
MEAN_MOTION_DDOT = 0

CCSDS_OMM_VERS = 2.0
CREATION_DATE  = 
ORIGINATOR     = 

OBJECT_NAME    = STARLINK-35731
OBJECT_ID      = 2025-244Y
CENTER_NAME    = EARTH
REF_FRAME      = TEME
TIME_SYSTEM    = UTC
MEAN_ELEMENT_THEORY = SGP/SGP4

EPOCH          = 2025-11-26T10:00:01.998720
MEAN_MOTION    = 15.40893814
ECCENTRICITY   = .000135
INCLINATION    = 53.1602
RA_OF_ASC_NODE = 352.5251
ARG_OF_PERICENTER = 71.8033
MEAN_ANOMALY   = 38.7571

EPHEMERIS_TYPE = 0
CLASSIFICATION_TYPE = U
NORAD_CAT_ID   = 66228
ELEMENT_SET_NO = 999
REV_AT_EPOCH   = 558
BSTAR          = -.46396E-1
MEAN_MOTION_DOT = -.1750575E-1
MEAN_MOTION_DDOT = 0

CCSDS_OMM_VERS = 2.0
CREATION_DATE  = 
ORIGINATOR     = 

OBJECT_NAME    = STARLINK-35758
OBJECT_ID      = 2025-244Z
CENTER_NAME    = EARTH
REF_FRAME      = TEME
TIME_SYSTEM    = UTC
MEAN_ELEMENT_THEORY = SGP/SGP4

EPOCH          = 2025-11-26T10:00:01.998720
MEAN_MOTION    = 15.40879488
ECCENTRICITY   = .0001251
INCLINATION    = 53.1604
RA_OF_ASC_NODE = 352.5219
ARG_OF_PERICENTER = 68.5155
MEAN_ANOMALY   = 43.8898

EPHEMERIS_TYPE = 0
CLASSIFICATION_TYPE = U
NORAD_CAT_ID   = 66229
ELEMENT_SET_NO = 999
REV_AT_EPOCH   = 558
BSTAR          = -.46016E-1
MEAN_MOTION_DOT = -.1736798E-1
MEAN_MOTION_DDOT = 0

